{"type": "FeatureCollection", "features": [ {"type": "Feature", "properties": {"norad_id": 66706, "name": "FLOCK 4H-3", "group": "last-30-days", "lat": 82.43654954079322, "lon": -32.50381743865986, "alt_km": 504.37810503682795, "timestamp": "2025-12-21T18:54:57.222776+00:00", "meta": {"OBJECT_NAME": "FLOCK 4H-3", "OBJECT_ID": "2025-276AS", "EPOCH": "2025-12-21T09:02:08.720448", "MEAN_MOTION": 15.19631128, "ECCENTRICITY": 0.001085, "INCLINATION": 97.4467, "RA_OF_ASC_NODE": 67.0015, "ARG_OF_PERICENTER": 263.3993, "MEAN_ANOMALY": 96.6007, "EPHEMERIS_TYPE": 0, "CLASSIFICATION_TYPE": "U", "NORAD_CAT_ID": 66706, "ELEMENT_SET_NO": 999, "REV_AT_EPOCH": 343, "BSTAR": 0.047949064, "MEAN_MOTION_DOT": 0.01105709, "MEAN_MOTION_DDOT": 0}, "tle": {"line1": "1 66706U 25276AS  25355.37648982  .01105709  00000+0  47949-1 0  9990", "line2": "2 66706  97.4467  67.0015 0010850 263.3993  96.6007 15.19631128  3437"}}, "geometry": {"type": "Point", "coordinates": [-32.50381743865986, 82.43654954079322]}}, {"type": "Feature", "properties": {"norad_id": 66707, "name": "FLOCK 4H-4", "group": "last-30-days", "lat": 62.368600618704676, "lon": 52.92963096505098, "alt_km": 510.6370484561494, "timestamp": "2025-12-21T18:54:57.222786+00:00", "meta": {"OBJECT_NAME": "FLOCK 4H-4", "OBJECT_ID": "2025-276AT", "EPOCH": "2025-12-21T12:18:22.238496", "MEAN_MOTION": 15.17188007, "ECCENTRICITY": 0.00035127, "INCLINATION": 97.4436, "RA_OF_ASC_NODE": 67.122, "ARG_OF_PERICENTER": 258.3382, "MEAN_ANOMALY": 101.7457, "EPHEMERIS_TYPE": 0, "CLASSIFICATION_TYPE": "U", "NORAD_CAT_ID": 66707, "ELEMENT_SET_NO": 999, "REV_AT_EPOCH": 345, "BSTAR": 0.0003012039, "MEAN_MOTION_DOT": 5.918e-05, "MEAN_MOTION_DDOT": 0}, "tle": {"line1": "1 66707U 25276AT  25355.51275739  .00005918  00000+0  30120-3 0  9998", "line2": "2 66707  97.4436  67.1220 0003512 258.3382 101.7457 15.17188007  3456"}}, "geometry": {"type": "Point", "coordinates": [52.92963096505098, 62.368600618704676]}}, {"type": "Feature", "properties": {"norad_id": 66708, "name": "FLOCK 4H-5", "group": "last-30-days", "lat": 37.4056215579345, "lon": -106.85269168444694, "alt_km": 508.0546302177336, "timestamp": "2025-12-21T18:54:57.222798+00:00", "meta": {"OBJECT_NAME": "FLOCK 4H-5", "OBJECT_ID": "2025-276AU", "EPOCH": "2025-12-21T07:13:07.585536", "MEAN_MOTION": 15.18142755, "ECCENTRICITY": 0.00011198, "INCLINATION": 97.439, "RA_OF_ASC_NODE": 66.9337, "ARG_OF_PERICENTER": 128.5114, "MEAN_ANOMALY": 231.622, "EPHEMERIS_TYPE": 0, "CLASSIFICATION_TYPE": "U", "NORAD_CAT_ID": 66708, "ELEMENT_SET_NO": 999, "REV_AT_EPOCH": 342, "BSTAR": 0.000330697, "MEAN_MOTION_DOT": 6.686e-05, "MEAN_MOTION_DDOT": 0}, "tle": {"line1": "1 66708U 25276AU  25355.30078224  .00006686  00000+0  33070-3 0  9996", "line2": "2 66708  97.4390  66.9337 0001119 128.5114 231.6220 15.18142755  3423"}}, "geometry": {"type": "Point", "coordinates": [-106.85269168444694, 37.4056215579345]}}, {"type": "Feature", "properties": {"norad_id": 66709, "name": "FLOCK 4H-6", "group": "last-30-days", "lat": 56.08769733391379, "lon": -101.36313436065609, "alt_km": 506.8312641431912, "timestamp": "2025-12-21T18:54:57.222808+00:00", "meta": {"OBJECT_NAME": "FLOCK 4H-6", "OBJECT_ID": "2025-276AV", "EPOCH": "2025-12-21T10:27:51.919776", "MEAN_MOTION": 15.17892092, "ECCENTRICITY": 0.00026051, "INCLINATION": 97.444, "RA_OF_ASC_NODE": 67.0759, "ARG_OF_PERICENTER": 212.9123, "MEAN_ANOMALY": 147.1949, "EPHEMERIS_TYPE": 0, "CLASSIFICATION_TYPE": "U", "NORAD_CAT_ID": 66709, "ELEMENT_SET_NO": 999, "REV_AT_EPOCH": 344, "BSTAR": 0.00038596189, "MEAN_MOTION_DOT": 7.759e-05, "MEAN_MOTION_DDOT": 0}, "tle": {"line1": "1 66709U 25276AV  25355.43601759  .00007759  00000+0  38596-3 0  9996", "line2": "2 66709  97.4440  67.0759 0002605 212.9123 147.1949 15.17892092  3445"}}, "geometry": {"type": "Point", "coordinates": [-101.36313436065609, 56.08769733391379]}}, {"type": "Feature", "properties": {"norad_id": 66710, "name": "FLOCK 4H-7", "group": "last-30-days", "lat": 80.77904958945105, "lon": 13.784161345104167, "alt_km": 506.6805637151365, "timestamp": "2025-12-21T18:54:57.222818+00:00", "meta": {"OBJECT_NAME": "FLOCK 4H-7", "OBJECT_ID": "2025-276AW", "EPOCH": "2025-12-21T09:02:56.993856", "MEAN_MOTION": 15.17464124, "ECCENTRICITY": 0.00010939, "INCLINATION": 97.4395, "RA_OF_ASC_NODE": 66.9821, "ARG_OF_PERICENTER": 304.4671, "MEAN_ANOMALY": 55.646, "EPHEMERIS_TYPE": 0, "CLASSIFICATION_TYPE": "U", "NORAD_CAT_ID": 66710, "ELEMENT_SET_NO": 999, "REV_AT_EPOCH": 343, "BSTAR": 0.0002000489, "MEAN_MOTION_DOT": 3.939e-05, "MEAN_MOTION_DDOT": 0}, "tle": {"line1": "1 66710U 25276AW  25355.37704854  .00003939  00000+0  20005-3 0  9993", "line2": "2 66710  97.4395  66.9821 0001093 304.4671  55.6460 15.17464124  3430"}}, "geometry": {"type": "Point", "coordinates": [13.784161345104167, 80.77904958945105]}}, {"type": "Feature", "properties": {"norad_id": 66711, "name": "FLOCK 4H-8", "group": "last-30-days", "lat": 80.00635025424393, "lon": 19.504575792513684, "alt_km": 507.7133416844699, "timestamp": "2025-12-21T18:54:57.222832+00:00", "meta": {"OBJECT_NAME": "FLOCK 4H-8", "OBJECT_ID": "2025-276AX", "EPOCH": "2025-12-21T13:48:08.035200", "MEAN_MOTION": 15.17463829, "ECCENTRICITY": 0.00023569, "INCLINATION": 97.4439, "RA_OF_ASC_NODE": 67.1961, "ARG_OF_PERICENTER": 275.7042, "MEAN_ANOMALY": 84.3923, "EPHEMERIS_TYPE": 0, "CLASSIFICATION_TYPE": "U", "NORAD_CAT_ID": 66711, "ELEMENT_SET_NO": 999, "REV_AT_EPOCH": 346, "BSTAR": 0.00039017689, "MEAN_MOTION_DOT": 7.749e-05, "MEAN_MOTION_DDOT": 0}, "tle": {"line1": "1 66711U 25276AX  25355.57509300  .00007749  00000+0  39018-3 0  9992", "line2": "2 66711  97.4439  67.1961 0002356 275.7042  84.3923 15.17463829  3460"}}, "geometry": {"type": "Point", "coordinates": [19.504575792513684, 80.00635025424393]}}, {"type": "Feature", "properties": {"norad_id": 66712, "name": "FLOCK 4H-9", "group": "last-30-days", "lat": 57.14203930657919, "lon": -100.90232784552732, "alt_km": 507.0392638681178, "timestamp": "2025-12-21T18:54:57.222842+00:00", "meta": {"OBJECT_NAME": "FLOCK 4H-9", "OBJECT_ID": "2025-276AY", "EPOCH": "2025-12-21T10:28:09.014880", "MEAN_MOTION": 15.17893618, "ECCENTRICITY": 0.00026152, "INCLINATION": 97.4432, "RA_OF_ASC_NODE": 67.0736, "ARG_OF_PERICENTER": 222.6932, "MEAN_ANOMALY": 137.4099, "EPHEMERIS_TYPE": 0, "CLASSIFICATION_TYPE": "U", "NORAD_CAT_ID": 66712, "ELEMENT_SET_NO": 999, "REV_AT_EPOCH": 344, "BSTAR": 0.000336224, "MEAN_MOTION_DOT": 6.75e-05, "MEAN_MOTION_DDOT": 0}, "tle": {"line1": "1 66712U 25276AY  25355.43621545  .00006750  00000+0  33622-3 0  9990", "line2": "2 66712  97.4432  67.0736 0002615 222.6932 137.4099 15.17893618  3445"}}, "geometry": {"type": "Point", "coordinates": [-100.90232784552732, 57.14203930657919]}}, {"type": "Feature", "properties": {"norad_id": 66713, "name": "FLOCK 4H-10", "group": "last-30-days", "lat": 65.34021463276173, "lon": 50.841391987439515, "alt_km": 510.00457511528566, "timestamp": "2025-12-21T18:54:57.222852+00:00", "meta": {"OBJECT_NAME": "FLOCK 4H-10", "OBJECT_ID": "2025-276AZ", "EPOCH": "2025-12-21T12:17:32.542944", "MEAN_MOTION": 15.17170539, "ECCENTRICITY": 0.00026878, "INCLINATION": 97.4432, "RA_OF_ASC_NODE": 67.1151, "ARG_OF_PERICENTER": 252.9711, "MEAN_ANOMALY": 107.1228, "EPHEMERIS_TYPE": 0, "CLASSIFICATION_TYPE": "U", "NORAD_CAT_ID": 66713, "ELEMENT_SET_NO": 999, "REV_AT_EPOCH": 345, "BSTAR": -0.0036543614, "MEAN_MOTION_DOT": -0.00071864, "MEAN_MOTION_DDOT": 0}, "tle": {"line1": "1 66713U 25276AZ  25355.51218221 -.00071864  00000+0 -36544-2 0  9998", "line2": "2 66713  97.4432  67.1151 0002687 252.9711 107.1228 15.17170539  3457"}}, "geometry": {"type": "Point", "coordinates": [50.841391987439515, 65.34021463276173]}}, {"type": "Feature", "properties": {"norad_id": 66714, "name": "FLOCK 4H-11", "group": "last-30-days", "lat": 81.8718056691411, "lon": -46.35414517695378, "alt_km": 506.610485525046, "timestamp": "2025-12-21T18:54:57.222862+00:00", "meta": {"OBJECT_NAME": "FLOCK 4H-11", "OBJECT_ID": "2025-276BA", "EPOCH": "2025-12-21T13:45:34.517088", "MEAN_MOTION": 15.17754844, "ECCENTRICITY": 0.00021277, "INCLINATION": 97.4422, "RA_OF_ASC_NODE": 67.195, "ARG_OF_PERICENTER": 283.9981, "MEAN_ANOMALY": 76.1016, "EPHEMERIS_TYPE": 0, "CLASSIFICATION_TYPE": "U", "NORAD_CAT_ID": 66714, "ELEMENT_SET_NO": 999, "REV_AT_EPOCH": 346, "BSTAR": 0.00056569197, "MEAN_MOTION_DOT": 0.00011364, "MEAN_MOTION_DDOT": 0}, "tle": {"line1": "1 66714U 25276BA  25355.57331617  .00011364  00000+0  56569-3 0  9997", "line2": "2 66714  97.4422  67.1950 0002127 283.9981  76.1016 15.17754844  3464"}}, "geometry": {"type": "Point", "coordinates": [-46.35414517695378, 81.8718056691411]}}, {"type": "Feature", "properties": {"norad_id": 66715, "name": "FLOCK 4H-12", "group": "last-30-days", "lat": 46.48777995970334, "lon": -104.68145951719285, "alt_km": 506.9461589368102, "timestamp": "2025-12-21T18:54:57.222874+00:00", "meta": {"OBJECT_NAME": "FLOCK 4H-12", "OBJECT_ID": "2025-276BB", "EPOCH": "2025-12-21T10:25:20.586720", "MEAN_MOTION": 15.18057671, "ECCENTRICITY": 0.00018661, "INCLINATION": 97.4398, "RA_OF_ASC_NODE": 67.0591, "ARG_OF_PERICENTER": 189.5113, "MEAN_ANOMALY": 170.6086, "EPHEMERIS_TYPE": 0, "CLASSIFICATION_TYPE": "U", "NORAD_CAT_ID": 66715, "ELEMENT_SET_NO": 999, "REV_AT_EPOCH": 375, "BSTAR": 0.00039777249, "MEAN_MOTION_DOT": 8.037e-05, "MEAN_MOTION_DDOT": 0}, "tle": {"line1": "1 66715U 25276BB  25355.43426605  .00008037  00000+0  39777-3 0  9990", "line2": "2 66715  97.4398  67.0591 0001866 189.5113 170.6086 15.18057671  3758"}}, "geometry": {"type": "Point", "coordinates": [-104.68145951719285, 46.48777995970334]}}]}